[Satellite]
VERSION=1.1
NAME=STARLINK-5219
NICKNAME=STARLINK-5219
TLE1=1 54094U 22136AV  22321.58334491 -.00018674  00000+0 -12877-3 0  9998
TLE2=2 54094  53.2157   9.4456 0003674   6.5220 333.2299 15.73213788  1300
STATUS=0
